{"type": "FeatureCollection", "features": [ {"type": "Feature", "properties": {"norad_id": 31195, "name": "FENGYUN 1C DEB", "group": "fengyun-1c-debris", "lat": -5.09152253109627, "lon": -170.74198834581662, "alt_km": 757.1513557178068, "timestamp": "2025-12-02T10:50:47.554987+00:00", "meta": {"OBJECT_NAME": "FENGYUN 1C DEB", "OBJECT_ID": "1999-025BJZ", "EPOCH": "2025-11-30T08:30:02.282976", "MEAN_MOTION": 14.07969257, "ECCENTRICITY": 0.01713488, "INCLINATION": 98.7806, "RA_OF_ASC_NODE": 8.0058, "ARG_OF_PERICENTER": 216.152, "MEAN_ANOMALY": 142.7968, "EPHEMERIS_TYPE": 0, "CLASSIFICATION_TYPE": "U", "NORAD_CAT_ID": 31195, "ELEMENT_SET_NO": 999, "REV_AT_EPOCH": 95924, "BSTAR": 7.3104965e-05, "MEAN_MOTION_DOT": 9.9e-07, "MEAN_MOTION_DDOT": 0}, "tle": {"line1": "1 31195U 99025BJZ 25334.35419309  .00000099  00000+0  73105-4 0  9992", "line2": "2 31195  98.7806   8.0058 0171348 216.1520 142.7968 14.07969257959247"}}, "geometry": {"type": "Point", "coordinates": [-170.74198834581662, -5.09152253109627]}}, {"type": "Feature", "properties": {"norad_id": 31196, "name": "FENGYUN 1C DEB", "group": "fengyun-1c-debris", "lat": -24.97875507890429, "lon": 165.95300428292964, "alt_km": 779.7086716409794, "timestamp": "2025-12-02T10:50:47.554997+00:00", "meta": {"OBJECT_NAME": "FENGYUN 1C DEB", "OBJECT_ID": "1999-025BKA", "EPOCH": "2025-12-01T20:24:17.654112", "MEAN_MOTION": 14.25414445, "ECCENTRICITY": 0.0057524, "INCLINATION": 98.5273, "RA_OF_ASC_NODE": 349.3759, "ARG_OF_PERICENTER": 244.3267, "MEAN_ANOMALY": 115.1966, "EPHEMERIS_TYPE": 0, "CLASSIFICATION_TYPE": "U", "NORAD_CAT_ID": 31196, "ELEMENT_SET_NO": 999, "REV_AT_EPOCH": 63340, "BSTAR": 0.00061756, "MEAN_MOTION_DOT": 1.439e-05, "MEAN_MOTION_DDOT": 0}, "tle": {"line1": "1 31196U 99025BKA 25335.85020433  .00001439  00000+0  61756-3 0  9992", "line2": "2 31196  98.5273 349.3759 0057524 244.3267 115.1966 14.25414445633406"}}, "geometry": {"type": "Point", "coordinates": [165.95300428292964, -24.97875507890429]}}, {"type": "Feature", "properties": {"norad_id": 31198, "name": "FENGYUN 1C DEB", "group": "fengyun-1c-debris", "lat": -81.38185189017265, "lon": 171.65630095955729, "alt_km": 1033.9264918334902, "timestamp": "2025-12-02T10:50:47.555007+00:00", "meta": {"OBJECT_NAME": "FENGYUN 1C DEB", "OBJECT_ID": "1999-025BKC", "EPOCH": "2025-12-01T12:34:56.883936", "MEAN_MOTION": 13.75517789, "ECCENTRICITY": 0.02043988, "INCLINATION": 98.6128, "RA_OF_ASC_NODE": 80.4615, "ARG_OF_PERICENTER": 21.657, "MEAN_ANOMALY": 339.3074, "EPHEMERIS_TYPE": 0, "CLASSIFICATION_TYPE": "U", "NORAD_CAT_ID": 31198, "ELEMENT_SET_NO": 999, "REV_AT_EPOCH": 62599, "BSTAR": 9.550966e-05, "MEAN_MOTION_DOT": 6.9e-07, "MEAN_MOTION_DDOT": 0}, "tle": {"line1": "1 31198U 99025BKC 25335.52426949  .00000069  00000+0  95510-4 0  9994", "line2": "2 31198  98.6128  80.4615 0204398  21.6570 339.3074 13.75517789625992"}}, "geometry": {"type": "Point", "coordinates": [171.65630095955729, -81.38185189017265]}}, {"type": "Feature", "properties": {"norad_id": 31199, "name": "FENGYUN 1C DEB", "group": "fengyun-1c-debris", "lat": -42.16148189516656, "lon": 131.56845312563533, "alt_km": 847.3901353367728, "timestamp": "2025-12-02T10:50:47.555016+00:00", "meta": {"OBJECT_NAME": "FENGYUN 1C DEB", "OBJECT_ID": "1999-025BKD", "EPOCH": "2025-12-01T22:00:32.714784", "MEAN_MOTION": 14.0997455, "ECCENTRICITY": 0.0063895, "INCLINATION": 98.7153, "RA_OF_ASC_NODE": 319.0345, "ARG_OF_PERICENTER": 290.7874, "MEAN_ANOMALY": 99.0046, "EPHEMERIS_TYPE": 0, "CLASSIFICATION_TYPE": "U", "NORAD_CAT_ID": 31199, "ELEMENT_SET_NO": 999, "REV_AT_EPOCH": 96007, "BSTAR": 0.00023049, "MEAN_MOTION_DOT": 3.71e-06, "MEAN_MOTION_DDOT": 0}, "tle": {"line1": "1 31199U 99025BKD 25335.91704531  .00000371  00000+0  23049-3 0  9997", "line2": "2 31199  98.7153 319.0345 0063895 290.7874  99.0046 14.09974550960075"}}, "geometry": {"type": "Point", "coordinates": [131.56845312563533, -42.16148189516656]}}, {"type": "Feature", "properties": {"norad_id": 31201, "name": "FENGYUN 1C DEB", "group": "fengyun-1c-debris", "lat": -43.771518737261296, "lon": 8.147658395175526, "alt_km": 875.4365284297064, "timestamp": "2025-12-02T10:50:47.555026+00:00", "meta": {"OBJECT_NAME": "FENGYUN 1C DEB", "OBJECT_ID": "1999-025BKF", "EPOCH": "2025-12-02T02:08:41.256960", "MEAN_MOTION": 14.35073162, "ECCENTRICITY": 0.0143176, "INCLINATION": 99.0033, "RA_OF_ASC_NODE": 196.506, "ARG_OF_PERICENTER": 22.3283, "MEAN_ANOMALY": 130.6061, "EPHEMERIS_TYPE": 0, "CLASSIFICATION_TYPE": "U", "NORAD_CAT_ID": 31201, "ELEMENT_SET_NO": 999, "REV_AT_EPOCH": 97098, "BSTAR": 0.00093743, "MEAN_MOTION_DOT": 2.952e-05, "MEAN_MOTION_DDOT": 0}, "tle": {"line1": "1 31201U 99025BKF 25336.08936640  .00002952  00000+0  93743-3 0  9993", "line2": "2 31201  99.0033 196.5060 0143176  22.3283 130.6061 14.35073162970984"}}, "geometry": {"type": "Point", "coordinates": [8.147658395175526, -43.771518737261296]}}, {"type": "Feature", "properties": {"norad_id": 31202, "name": "FENGYUN 1C DEB", "group": "fengyun-1c-debris", "lat": 11.959506149628805, "lon": 22.108596369487774, "alt_km": 663.2471161527701, "timestamp": "2025-12-02T10:50:47.555036+00:00", "meta": {"OBJECT_NAME": "FENGYUN 1C DEB", "OBJECT_ID": "1999-025BKG", "EPOCH": "2025-12-02T02:49:45.372864", "MEAN_MOTION": 14.83770333, "ECCENTRICITY": 0.006767, "INCLINATION": 96.5753, "RA_OF_ASC_NODE": 23.2332, "ARG_OF_PERICENTER": 213.309, "MEAN_ANOMALY": 175.3321, "EPHEMERIS_TYPE": 0, "CLASSIFICATION_TYPE": "U", "NORAD_CAT_ID": 31202, "ELEMENT_SET_NO": 999, "REV_AT_EPOCH": 98997, "BSTAR": 0.0012828, "MEAN_MOTION_DOT": 0.00011028, "MEAN_MOTION_DDOT": 0}, "tle": {"line1": "1 31202U 99025BKG 25336.11788626  .00011028  00000+0  12828-2 0  9995", "line2": "2 31202  96.5753  23.2332 0067670 213.3090 175.3321 14.83770333989977"}}, "geometry": {"type": "Point", "coordinates": [22.108596369487774, 11.959506149628805]}}, {"type": "Feature", "properties": {"norad_id": 31205, "name": "FENGYUN 1C DEB", "group": "fengyun-1c-debris", "lat": 6.9842289439575405, "lon": 67.95599709140112, "alt_km": 902.488063367512, "timestamp": "2025-12-02T10:50:47.555046+00:00", "meta": {"OBJECT_NAME": "FENGYUN 1C DEB", "OBJECT_ID": "1999-025BKK", "EPOCH": "2025-11-29T11:58:58.312128", "MEAN_MOTION": 14.23938428, "ECCENTRICITY": 0.01613803, "INCLINATION": 99.2295, "RA_OF_ASC_NODE": 65.9983, "ARG_OF_PERICENTER": 235.3423, "MEAN_ANOMALY": 123.2453, "EPHEMERIS_TYPE": 0, "CLASSIFICATION_TYPE": "U", "NORAD_CAT_ID": 31205, "ELEMENT_SET_NO": 999, "REV_AT_EPOCH": 97022, "BSTAR": 0.00015699283, "MEAN_MOTION_DOT": 3.6e-06, "MEAN_MOTION_DDOT": 0}, "tle": {"line1": "1 31205U 99025BKK 25333.49928602  .00000360  00000+0  15699-3 0  9993", "line2": "2 31205  99.2295  65.9983 0161380 235.3423 123.2453 14.23938428970224"}}, "geometry": {"type": "Point", "coordinates": [67.95599709140112, 6.9842289439575405]}}, {"type": "Feature", "properties": {"norad_id": 31206, "name": "FENGYUN 1C DEB", "group": "fengyun-1c-debris", "lat": 41.26987281238641, "lon": 71.88541296684755, "alt_km": 768.8562676379297, "timestamp": "2025-12-02T10:50:47.555056+00:00", "meta": {"OBJECT_NAME": "FENGYUN 1C DEB", "OBJECT_ID": "1999-025BKL", "EPOCH": "2025-12-02T00:12:40.586112", "MEAN_MOTION": 14.40414762, "ECCENTRICITY": 0.0078364, "INCLINATION": 98.8427, "RA_OF_ASC_NODE": 243.5756, "ARG_OF_PERICENTER": 33.2859, "MEAN_ANOMALY": 327.3221, "EPHEMERIS_TYPE": 0, "CLASSIFICATION_TYPE": "U", "NORAD_CAT_ID": 31206, "ELEMENT_SET_NO": 999, "REV_AT_EPOCH": 97691, "BSTAR": 0.00086299, "MEAN_MOTION_DOT": 2.795e-05, "MEAN_MOTION_DDOT": 0}, "tle": {"line1": "1 31206U 99025BKL 25336.00880308  .00002795  00000+0  86299-3 0  9992", "line2": "2 31206  98.8427 243.5756 0078364  33.2859 327.3221 14.40414762976917"}}, "geometry": {"type": "Point", "coordinates": [71.88541296684755, 41.26987281238641]}}, {"type": "Feature", "properties": {"norad_id": 31208, "name": "FENGYUN 1C DEB", "group": "fengyun-1c-debris", "lat": -44.48173727451893, "lon": 128.15302327588765, "alt_km": 685.1030983068194, "timestamp": "2025-12-02T10:50:47.555067+00:00", "meta": {"OBJECT_NAME": "FENGYUN 1C DEB", "OBJECT_ID": "1999-025BKN", "EPOCH": "2025-11-30T08:14:41.612352", "MEAN_MOTION": 14.6127625, "ECCENTRICITY": 0.00154996, "INCLINATION": 99.2408, "RA_OF_ASC_NODE": 116.6005, "ARG_OF_PERICENTER": 303.0364, "MEAN_ANOMALY": 86.4571, "EPHEMERIS_TYPE": 0, "CLASSIFICATION_TYPE": "U", "NORAD_CAT_ID": 31208, "ELEMENT_SET_NO": 999, "REV_AT_EPOCH": 70298, "BSTAR": 0.0032156877, "MEAN_MOTION_DOT": 0.00015873, "MEAN_MOTION_DDOT": 0}, "tle": {"line1": "1 31208U 99025BKN 25334.34353718  .00015873  00000+0  32157-2 0  9993", "line2": "2 31208  99.2408 116.6005 0015499 303.0364  86.4571 14.61276250702985"}}, "geometry": {"type": "Point", "coordinates": [128.15302327588765, -44.48173727451893]}}, {"type": "Feature", "properties": {"norad_id": 31209, "name": "FENGYUN 1C DEB", "group": "fengyun-1c-debris", "lat": 66.15548228633051, "lon": -88.18248293186524, "alt_km": 742.5780795232113, "timestamp": "2025-12-02T10:50:47.555076+00:00", "meta": {"OBJECT_NAME": "FENGYUN 1C DEB", "OBJECT_ID": "1999-025BKP", "EPOCH": "2025-11-30T00:05:28.523040", "MEAN_MOTION": 14.43135602, "ECCENTRICITY": 0.00214689, "INCLINATION": 98.8844, "RA_OF_ASC_NODE": 68.5398, "ARG_OF_PERICENTER": 25.3584, "MEAN_ANOMALY": 334.8653, "EPHEMERIS_TYPE": 0, "CLASSIFICATION_TYPE": "U", "NORAD_CAT_ID": 31209, "ELEMENT_SET_NO": 999, "REV_AT_EPOCH": 64624, "BSTAR": 0.0029439895, "MEAN_MOTION_DOT": 9.879e-05, "MEAN_MOTION_DDOT": 0}, "tle": {"line1": "1 31209U 99025BKP 25334.00380235  .00009879  00000+0  29440-2 0  9991", "line2": "2 31209  98.8844  68.5398 0021468  25.3584 334.8653 14.43135602646248"}}, "geometry": {"type": "Point", "coordinates": [-88.18248293186524, 66.15548228633051]}}]}